{{Infobox Planet  
| name = 495 Eulalia
| image = 
| caption = 
| discovery=yes | physical_characteristics = yes | bgcolour=#FFFFC0
| discovery_ref = 
| discoverer = [[马克斯·沃夫|马克斯·沃夫]]
| discovery_site = [[海德堡|海德堡]]（[[天文台编号列表|024]]）
| discovered =  1902年10月25日
| mp_name = 495
| alt_names = 1902 KG
| named_after = Eulalia
| mp_category=[[小行星带|主带小行星]]
| orbit_ref = <ref>[http://ssd.jpl.nasa.gov/sbdb.cgi?sstr=495 495 Eulalia (1902 KG)]</ref>
| epoch = 2011年8月27日
| semimajor= 2.486853760619057AU
| perihelion=2.164651603008316AU
| aphelion=2.809055918229798[[天文单位|AU]]
| eccentricity =0.1295621651393504					
| period =1432.431285783269[[日|地球日]]<br>3.92[[年|地球年]] 
| inclination=2.279460776194099[[角度|°]]
| asc_node=186.535606626693°
| arg_peri=207.5123938524769°
| mean_anomaly=272.651049886385°
| avg_speed=
 | dimensions=38.85千米
 | mass=
 | density=
 | surface_grav=
 | escape_velocity=
 | rotation=29.2小时
 | spectral_type=
 | magnitude=
 | abs_magnitude=10.78
 | albedo=0.0571
 | single_temperature=
}}
'''小行星495'''（'''495 Eulalia'''），是由[[德国|德国]][[天文学家|天文学家]][[马克斯·沃夫|马克斯·沃夫]]于1902年10月25日在德国[[海德堡|海德堡]][[王座山天文台|王座山天文台]]利用照相法发现的[[小行星带|主带]][[小行星|小行星]]。

小行星495以沃夫的[[岳母|岳母]]Eulalia命名。

== 参考资料 ==
{{Reflist}}

{{Minor Planet Number|(494)[[小行星494|小行星494]]|(496)[[小行星496|小行星496]]}}

[[Category:小行星带天体|Category:小行星带天体]]
[[Category:1902年发现的小行星|Category:1902年发现的小行星]]
[[Category:以人名命名的小行星|Category:以人名命名的小行星]]